{"type": "FeatureCollection", "features": [ {"type": "Feature", "properties": {"norad_id": 51444, "name": "CSG-2", "group": "resource", "lat": -2.8618419692438306, "lon": 169.2728688870673, "alt_km": 625.7511201555217, "timestamp": "2025-12-13T13:34:34.732510+00:00", "meta": {"OBJECT_NAME": "CSG-2", "OBJECT_ID": "2022-008A", "EPOCH": "2025-12-13T00:37:38.624736", "MEAN_MOTION": 14.82166213, "ECCENTRICITY": 0.00015368, "INCLINATION": 97.8809, "RA_OF_ASC_NODE": 168.3449, "ARG_OF_PERICENTER": 82.0322, "MEAN_ANOMALY": 278.1066, "EPHEMERIS_TYPE": 0, "CLASSIFICATION_TYPE": "U", "NORAD_CAT_ID": 51444, "ELEMENT_SET_NO": 999, "REV_AT_EPOCH": 20901, "BSTAR": 0.00014576655, "MEAN_MOTION_DOT": 1.109e-05, "MEAN_MOTION_DDOT": 0}, "tle": {"line1": "1 51444U 22008A   25347.02614149  .00001109  00000+0  14577-3 0  9995", "line2": "2 51444  97.8809 168.3449 0001536  82.0322 278.1066 14.82166213209014"}}, "geometry": {"type": "Point", "coordinates": [169.2728688870673, -2.8618419692438306]}}, {"type": "Feature", "properties": {"norad_id": 52912, "name": "GAOFEN-12 03", "group": "resource", "lat": -81.27750668486583, "lon": -9.12824971367104, "alt_km": 639.2585219352341, "timestamp": "2025-12-13T13:34:34.732519+00:00", "meta": {"OBJECT_NAME": "GAOFEN-12 03", "OBJECT_ID": "2022-069A", "EPOCH": "2025-12-12T23:23:33.207360", "MEAN_MOTION": 14.79611076, "ECCENTRICITY": 0.00021596, "INCLINATION": 97.8477, "RA_OF_ASC_NODE": 234.3185, "ARG_OF_PERICENTER": 61.9775, "MEAN_ANOMALY": 298.1655, "EPHEMERIS_TYPE": 0, "CLASSIFICATION_TYPE": "U", "NORAD_CAT_ID": 52912, "ELEMENT_SET_NO": 999, "REV_AT_EPOCH": 18707, "BSTAR": 0.00030551615, "MEAN_MOTION_DOT": 2.239e-05, "MEAN_MOTION_DDOT": 0}, "tle": {"line1": "1 52912U 22069A   25346.97468990  .00002239  00000+0  30552-3 0  9993", "line2": "2 52912  97.8477 234.3185 0002159  61.9775 298.1655 14.79611076187072"}}, "geometry": {"type": "Point", "coordinates": [-9.12824971367104, -81.27750668486583]}}, {"type": "Feature", "properties": {"norad_id": 54754, "name": "SWOT", "group": "resource", "lat": 6.0090158500516955, "lon": -72.79932569284313, "alt_km": 895.176059077683, "timestamp": "2025-12-13T13:34:34.732528+00:00", "meta": {"OBJECT_NAME": "SWOT", "OBJECT_ID": "2022-173A", "EPOCH": "2025-12-12T23:49:40.219104", "MEAN_MOTION": 14.00174731, "ECCENTRICITY": 3.515e-05, "INCLINATION": 77.6107, "RA_OF_ASC_NODE": 286.6479, "ARG_OF_PERICENTER": 110.2012, "MEAN_ANOMALY": 249.9177, "EPHEMERIS_TYPE": 0, "CLASSIFICATION_TYPE": "U", "NORAD_CAT_ID": 54754, "ELEMENT_SET_NO": 999, "REV_AT_EPOCH": 15309, "BSTAR": 5.5235993e-05, "MEAN_MOTION_DOT": 7.9e-07, "MEAN_MOTION_DDOT": 0}, "tle": {"line1": "1 54754U 22173A   25346.99282661  .00000079  00000+0  55236-4 0  9993", "line2": "2 54754  77.6107 286.6479 0000351 110.2012 249.9177 14.00174731153098"}}, "geometry": {"type": "Point", "coordinates": [-72.79932569284313, 6.0090158500516955]}}, {"type": "Feature", "properties": {"norad_id": 57654, "name": "GAOFEN-12 04", "group": "resource", "lat": 73.99012603397884, "lon": -125.67952110120473, "alt_km": 622.241286308059, "timestamp": "2025-12-13T13:34:34.732537+00:00", "meta": {"OBJECT_NAME": "GAOFEN-12 04", "OBJECT_ID": "2023-123A", "EPOCH": "2025-12-13T00:15:01.944288", "MEAN_MOTION": 14.79702248, "ECCENTRICITY": 0.00013509, "INCLINATION": 97.9117, "RA_OF_ASC_NODE": 262.7637, "ARG_OF_PERICENTER": 75.0578, "MEAN_ANOMALY": 285.0783, "EPHEMERIS_TYPE": 0, "CLASSIFICATION_TYPE": "U", "NORAD_CAT_ID": 57654, "ELEMENT_SET_NO": 999, "REV_AT_EPOCH": 12509, "BSTAR": 0.00031718514, "MEAN_MOTION_DOT": 2.331e-05, "MEAN_MOTION_DDOT": 0}, "tle": {"line1": "1 57654U 23123A   25347.01043917  .00002331  00000+0  31719-3 0  9996", "line2": "2 57654  97.9117 262.7637 0001350  75.0578 285.0783 14.79702248125091"}}, "geometry": {"type": "Point", "coordinates": [-125.67952110120473, 73.99012603397884]}}, {"type": "Feature", "properties": {"norad_id": 59065, "name": "PARS 1", "group": "resource", "lat": -64.50654510870996, "lon": -25.525717303226063, "alt_km": 456.4622857323684, "timestamp": "2025-12-13T13:34:34.732546+00:00", "meta": {"OBJECT_NAME": "PARS 1", "OBJECT_ID": "2024-039Q", "EPOCH": "2025-12-12T23:50:04.117344", "MEAN_MOTION": 15.40981461, "ECCENTRICITY": 0.0012536, "INCLINATION": 97.4635, "RA_OF_ASC_NODE": 317.9315, "ARG_OF_PERICENTER": 71.7114, "MEAN_ANOMALY": 288.5495, "EPHEMERIS_TYPE": 0, "CLASSIFICATION_TYPE": "U", "NORAD_CAT_ID": 59065, "ELEMENT_SET_NO": 999, "REV_AT_EPOCH": 9992, "BSTAR": 0.00038339665, "MEAN_MOTION_DOT": 0.00015768, "MEAN_MOTION_DDOT": 0}, "tle": {"line1": "1 59065U 24039Q   25346.99310321  .00015768  00000+0  38340-3 0  9998", "line2": "2 59065  97.4635 317.9315 0012536  71.7114 288.5495 15.40981461 99927"}}, "geometry": {"type": "Point", "coordinates": [-25.525717303226063, -64.50654510870996]}}, {"type": "Feature", "properties": {"norad_id": 59371, "name": "RESURS-P 4", "group": "resource", "lat": 49.63354651296546, "lon": -74.73904158664247, "alt_km": 464.0805459875146, "timestamp": "2025-12-13T13:34:34.732555+00:00", "meta": {"OBJECT_NAME": "RESURS-P 4", "OBJECT_ID": "2024-061A", "EPOCH": "2025-12-13T00:49:05.119392", "MEAN_MOTION": 15.32088986, "ECCENTRICITY": 0.00015011, "INCLINATION": 97.254, "RA_OF_ASC_NODE": 293.3582, "ARG_OF_PERICENTER": 52.915, "MEAN_ANOMALY": 307.2229, "EPHEMERIS_TYPE": 0, "CLASSIFICATION_TYPE": "U", "NORAD_CAT_ID": 59371, "ELEMENT_SET_NO": 999, "REV_AT_EPOCH": 9525, "BSTAR": 0.00019083726, "MEAN_MOTION_DOT": 5.836e-05, "MEAN_MOTION_DDOT": 0}, "tle": {"line1": "1 59371U 24061A   25347.03408703  .00005836  00000+0  19084-3 0  9990", "line2": "2 59371  97.2540 293.3582 0001501  52.9150 307.2229 15.32088986 95251"}}, "geometry": {"type": "Point", "coordinates": [-74.73904158664247, 49.63354651296546]}}, {"type": "Feature", "properties": {"norad_id": 59625, "name": "LEGION 1", "group": "resource", "lat": -48.45604488271851, "lon": -126.37830378197505, "alt_km": 523.1840764839644, "timestamp": "2025-12-13T13:34:34.732564+00:00", "meta": {"OBJECT_NAME": "LEGION 1", "OBJECT_ID": "2024-081A", "EPOCH": "2025-12-12T23:54:02.151072", "MEAN_MOTION": 15.1648505, "ECCENTRICITY": 0.00039169, "INCLINATION": 97.5212, "RA_OF_ASC_NODE": 61.6318, "ARG_OF_PERICENTER": 317.4955, "MEAN_ANOMALY": 42.5975, "EPHEMERIS_TYPE": 0, "CLASSIFICATION_TYPE": "U", "NORAD_CAT_ID": 59625, "ELEMENT_SET_NO": 999, "REV_AT_EPOCH": 8931, "BSTAR": 0.000366352, "MEAN_MOTION_DOT": 7.069e-05, "MEAN_MOTION_DDOT": 0}, "tle": {"line1": "1 59625U 24081A   25346.99585823  .00007069  00000+0  36635-3 0  9998", "line2": "2 59625  97.5212  61.6318 0003916 317.4955  42.5975 15.16485050 89311"}}, "geometry": {"type": "Point", "coordinates": [-126.37830378197505, -48.45604488271851]}}, {"type": "Feature", "properties": {"norad_id": 59626, "name": "LEGION 2", "group": "resource", "lat": 48.19168133137794, "lon": 53.788644879695404, "alt_km": 514.0267144902191, "timestamp": "2025-12-13T13:34:34.732573+00:00", "meta": {"OBJECT_NAME": "LEGION 2", "OBJECT_ID": "2024-081B", "EPOCH": "2025-12-12T23:06:34.930656", "MEAN_MOTION": 15.16496698, "ECCENTRICITY": 0.00057281, "INCLINATION": 97.5215, "RA_OF_ASC_NODE": 61.6865, "ARG_OF_PERICENTER": 292.4102, "MEAN_ANOMALY": 67.6523, "EPHEMERIS_TYPE": 0, "CLASSIFICATION_TYPE": "U", "NORAD_CAT_ID": 59626, "ELEMENT_SET_NO": 999, "REV_AT_EPOCH": 8931, "BSTAR": 0.00042777148, "MEAN_MOTION_DOT": 8.271e-05, "MEAN_MOTION_DDOT": 0}, "tle": {"line1": "1 59626U 24081B   25346.96290429  .00008271  00000+0  42777-3 0  9991", "line2": "2 59626  97.5215  61.6865 0005728 292.4102  67.6523 15.16496698 89318"}}, "geometry": {"type": "Point", "coordinates": [53.788644879695404, 48.19168133137794]}}, {"type": "Feature", "properties": {"norad_id": 60182, "name": "ALOS-4 (DAICHI-4)", "group": "resource", "lat": -43.40649092146353, "lon": 89.96940481439245, "alt_km": 638.3238469912803, "timestamp": "2025-12-13T13:34:34.732582+00:00", "meta": {"OBJECT_NAME": "ALOS-4 (DAICHI-4)", "OBJECT_ID": "2024-123A", "EPOCH": "2025-12-10T20:50:51.532800", "MEAN_MOTION": 14.79478132, "ECCENTRICITY": 0.0001419, "INCLINATION": 97.9225, "RA_OF_ASC_NODE": 79.7424, "ARG_OF_PERICENTER": 101.2045, "MEAN_ANOMALY": 258.9326, "EPHEMERIS_TYPE": 0, "CLASSIFICATION_TYPE": "U", "NORAD_CAT_ID": 60182, "ELEMENT_SET_NO": 999, "REV_AT_EPOCH": 7803, "BSTAR": 0.00039567, "MEAN_MOTION_DOT": 2.905e-05, "MEAN_MOTION_DDOT": 0}, "tle": {"line1": "1 60182U 24123A   25344.86865200  .00002905  00000+0  39567-3 0  9990", "line2": "2 60182  97.9225  79.7424 0001419 101.2045 258.9326 14.79478132 78033"}}, "geometry": {"type": "Point", "coordinates": [89.96940481439245, -43.40649092146353]}}, {"type": "Feature", "properties": {"norad_id": 60452, "name": "LEGION 3", "group": "resource", "lat": 43.672005681165615, "lon": 52.89997535448543, "alt_km": 513.8922668137911, "timestamp": "2025-12-13T13:34:34.732592+00:00", "meta": {"OBJECT_NAME": "LEGION 3", "OBJECT_ID": "2024-146A", "EPOCH": "2025-12-12T22:53:26.662848", "MEAN_MOTION": 15.15764531, "ECCENTRICITY": 0.00149063, "INCLINATION": 45.0016, "RA_OF_ASC_NODE": 308.9853, "ARG_OF_PERICENTER": 199.856, "MEAN_ANOMALY": 160.174, "EPHEMERIS_TYPE": 0, "CLASSIFICATION_TYPE": "U", "NORAD_CAT_ID": 60452, "ELEMENT_SET_NO": 999, "REV_AT_EPOCH": 7376, "BSTAR": 0.00040233783, "MEAN_MOTION_DOT": 7.569e-05, "MEAN_MOTION_DDOT": 0}, "tle": {"line1": "1 60452U 24146A   25346.95378082  .00007569  00000+0  40234-3 0  9998", "line2": "2 60452  45.0016 308.9853 0014906 199.8560 160.1740 15.15764531 73769"}}, "geometry": {"type": "Point", "coordinates": [52.89997535448543, 43.672005681165615]}}]}